    CK20F070  2021 11 13.9724  5.332111  0.992093  227.9659  321.8852   93.9522  20220128   7.0  4.0  C/2020 F7 (Lemmon)                                       MPEC 2022-A21
    CK20F080  2020 05 27.5743  0.429815  0.998395   68.1817  259.9673  110.7420  20220128  10.0  4.0  C/2020 F8 (SWAN)                                         MPEC 2020-KB7
    PK20G010  2020 03 17.3571  0.505395  0.859979  207.6361  240.0990   18.4863  20220128  17.0  4.0  P/2020 G1 (Pimentel)                                     MPEC 2020-L06
    CK20H020  2020 04 27.6884  0.833272  0.995662   26.7041  277.6500  125.0081  20220128  18.0  4.0  C/2020 H2 (Pruyne)                                       MPEC 2020-L06
    CK20H030  2020 06  5.7161  2.300288  1.000000   30.4456  270.6227   62.5292            13.5  4.0  C/2020 H3 (Wierzchos)                                    MPEC 2020-HM1
    CK20H040  2020 08 29.5538  0.926242  0.980714  117.5786  307.7246   84.5103  20220128  15.0  3.2  C/2020 H4 (Leonard)                                      MPEC 2020-L06
    CK20H050  2020 12 11.7704  9.344903  0.997333  326.3935  210.6296   70.2360  20220128   5.0  4.0  C/2020 H5 (Robinson)                                     MPEC 2022-A21
    CK20H060  2021 10  1.0434  4.702884  1.000549   20.3434  213.7086   79.9714  20220128   8.0  3.2  C/2020 H6 (ATLAS)                                        MPEC 2022-A21
    CK20H070  2020 06  2.9509  4.419545  0.996854   82.6780  323.5194  135.9235            11.0  4.0  C/2020 H7 (Lemmon)                                       MPEC 2020-KB7
    CK20H080  2020 06  4.4771  4.675718  0.992108  128.9442   68.4096   99.6563  20220128  10.5  4.0  C/2020 H8 (PANSTARRS)                                    MPEC 2021-N06
    AK20H090  2019 12 21.5008  2.579049  0.995501  312.9166  213.1465  137.8852  20220128  18.0  2.0  A/2020 H9                                                MPEC 2020-L06
    CK20J010  2021 04 18.6225  3.355166  1.000588  341.7585  226.5845  142.2984  20220128   8.5  3.2  C/2020 J1 (SONEAR)                                       MPEC 2022-A21
    CK20K010  2023 05  9.0735  3.073780  0.999815  213.9722   94.3586   89.6600  20220128   5.5  4.0  C/2020 K1 (PANSTARRS)                                    MPEC 2021-Y10
    CK20K020  2020 08  5.8699  8.879028  1.003313   67.3278  288.3585   91.0377  20220128  10.8  4.0  C/2020 K2 (PANSTARRS)                                    MPEC 2021-N06
    CK20K030  2020 06  1.0031  1.583069  1.000000   64.4924   28.3546  129.0152            14.5  4.0  C/2020 K3 (Leonard)                                      MPEC 2020-KF9
    CK20K040  2020 03  3.7226  1.754013  0.926627  308.8102  264.1208  125.5719  20220128  16.5  4.0  C/2020 K4 (PANSTARRS)                                    MPEC 2020-L06
    CK20K050  2021 06  5.5715  1.535784  1.001485  249.5935   86.1660   67.1486  20220128  11.0  4.0  C/2020 K5 (PANSTARRS)                                    MPEC 2021-R75
    CK20K060  2021 09 15.5833  5.868421  1.003189   44.3089  291.5292  103.6456  20220128   8.0  4.0  C/2020 K6 (Rankin)                                       MPEC 2021-W31
    CK20K070  2019 10 28.8139  6.389212  0.937032  358.2374  286.0713   32.0406  20220128   8.0  4.0  C/2020 K7 (PANSTARRS)                                    MPEC 2021-S45
    CK20K080  2020 09 14.5566  0.473837  1.000153  260.0113  181.5349   31.4248  20220128  15.0  3.2  C/2020 K8 (Catalina-ATLAS)                               MPEC 2021-P47
    PK20K090  2021 02 12.0174  2.849915  0.321398  196.9289  166.2402   23.2098  20220128  12.5  4.0  P/2020 K9 (Lemmon-PANSTARRS)                             MPEC 2021-BE3
    PK20M010  2019 12 31.0013  2.748690  0.480486   71.6532  142.8229    8.6256  20220128  14.5  4.0  P/2020 M1 (PANSTARRS)                                    MPEC 2021-U31
    CK20M030  2020 10 25.6771  1.268079  0.952928  328.4728   71.2253   23.4716  20220128  14.5  4.0  C/2020 M3 (ATLAS)                                        MPEC 2021-N06
    AK20M040  2020 11 24.0948  5.952637  1.000074  104.6529  348.6220  160.1273  20220128  14.5  2.0  A/2020 M4                                                MPEC 2021-R75
    CK20M050  2021 08 19.8747  3.004301  1.000249  126.3361  352.0939   93.2239  20220128   9.0  4.0  C/2020 M5 (ATLAS)                                        MPEC 2022-A21
    CK20N010  2021 03 12.2188  1.320361  1.000493  186.7622  279.9718   29.7047  20220128  12.5  4.0  C/2020 N1 (PANSTARRS)                                    MPEC 2021-N06
    CK20N020  2020 08 23.7748  1.794333  0.982549  331.2693  257.0988  161.0351  20220128  16.0  3.2  C/2020 N2 (ATLAS)                                        MPEC 2021-P47
    PK20O010  2020 05  2.5437  2.329069  0.119340  104.5276  175.9763    5.2259  20220128  15.5  4.0  P/2020 O1 (Lemmon-PANSTARRS)                             MPEC 2020-SI8
    CK20O020  2021 08 28.6008  4.862238  1.002352   10.3074  256.7570   71.7506  20220128   8.0  3.2  C/2020 O2 (Amaral)                                       MPEC 2021-W31
    PK20O030  2021 01 30.2937  4.167143  0.103965   81.5896  266.8290    8.4420  20220128  12.0  4.0  P/2020 O3 (PANSTARRS)                                    MPEC 2020-SI8
    CK20P010  2020 10 20.2062  0.341778  1.000271    8.8891   53.5176   45.0886  20220128  14.0  3.2  C/2020 P1 (NEOWISE)                                      MPEC 2021-BE3
    CK20P030  2021 04 20.8892  6.812348  0.999766   82.2521   19.4751   61.8858  20220128   6.0  4.0  C/2020 P3 (ATLAS)                                        MPEC 2022-A21
    CK20P06V  2021 09 26.0093  2.295664  0.945059   71.3846  329.1449  128.2392  20220128  10.0  4.0  C/2020 PV6 (PANSTARRS)                                   MPEC 2022-A21
    CK20Q010  2020 08 14.5701  1.315029  0.977589    9.9022   52.4150  142.9165  20220128  14.0  4.0  C/2020 Q1 (Borisov)                                      MPEC 2021-N06
    CK20R020  2022 02 24.5068  4.691870  0.988558  211.7367  195.0932   53.2280  20220128   9.0  4.0  C/2020 R2 (PANSTARRS)                                    MPEC 2022-A21
    CK20R040  2021 03  1.9628  1.028639  0.989571   46.7209  323.2745  164.4625  20220128  13.5  4.0  C/2020 R4 (ATLAS)                                        MPEC 2022-A21
    PK20R050  2020 05 28.9160  3.414755  0.314715   82.4485  272.9771   11.4517  20220128   9.5  6.0  P/2020 R5 (PANSTARRS)                                    MPEC 2020-W26
    CK20R060  2019 09  9.5751  3.131334  0.991191  272.0042   12.1779   82.8119  20220128  11.0  4.0  C/2020 R6 (Rankin)                                       MPEC 2021-Y10
    CK20R070  2022 09 16.2039  2.956025  0.999980  347.8275  268.2799  114.8920  20220128   7.0  3.2  C/2020 R7 (ATLAS)                                        MPEC 2022-A21
    PK20S010  2021 01 17.1596  2.947802  0.507493  254.9264  129.4612   13.7334  20220128  14.0  4.0  P/2020 S1 (PANSTARRS)                                    MPEC 2021-BE3
    CK20S020  2020 12 21.9985  1.756164  0.827811  202.2943  197.6729   22.3992  20220128  17.0  4.0  C/2020 S2 (PANSTARRS)                                    MPEC 2021-BE3
    CK20S030  2020 12 12.6784  0.397038  0.997774  349.9754  222.8091   19.9234  20220128  13.5  3.2  C/2020 S3 (Erasmus)                                      MPEC 2021-WD8
    CK20S040  2023 02  9.3416  3.369355  1.000442   21.0122  117.7203   20.5732  20220128   8.5  3.2  C/2020 S4 (PANSTARRS)                                    MPEC 2022-A21
    PK20S050  2020 08  8.7287  2.679630  0.338591   53.1020  316.0015   12.3531  20220128  14.5  4.0  P/2020 S5 (PANSTARRS)                                    MPEC 2021-BE3
    PK20S060  2020 11 23.6631  1.874528  0.479314  176.6697  242.5539   15.4594  20220128  16.0  4.0  P/2020 S6 (Leonard)                                      MPEC 2021-P47
    PK20S070  2020 11 18.3613  2.961810  0.410673   40.4720  328.0198   16.0918  20220128  14.5  4.0  P/2020 S7 (PANSTARRS)                                    MPEC 2021-BE3
    CK20S080  2021 04 10.9202  2.363668  0.991426  160.3296   24.0555  108.5242  20220128  12.5  4.0  C/2020 S8 (Lemmon)                                       MPEC 2021-P47
    CK20T020  2021 07 11.1779  2.054865  0.993509  150.4004   83.0447   27.8702  20220128  11.0  3.2  C/2020 T2 (Palomar)                                      MPEC 2021-WD8
    PK20T030  2021 01 20.4878  1.436218  0.591693  357.0387   74.0079    7.2957  20220128  18.0  3.2  P/2020 T3 (PANSTARRS)                                    MPEC 2021-N06
    CK20T040  2021 07  5.2614  2.191884  1.000086   79.6101   50.6166   83.8162  20220128  13.0  3.2  C/2020 T4 (PANSTARRS)                                    MPEC 2021-N06
    CK20T050  2020 10  9.6041  1.889491  0.997717   90.3075  237.8596   66.5897  20220128  16.0  4.0  C/2020 T5 (Lemmon)                                       MPEC 2021-BE3
    PK20U020  2020 12 25.7335  1.848498  0.510736   84.6417  342.8992    6.4211  20220128  18.0  4.0  P/2020 U2 (PANSTARRS)                                    MPEC 2021-N06
    CK20U030  2021 02  6.0308  2.276274  0.965284  124.2776  282.6769   30.1719  20220128  15.0  4.0  C/2020 U3 (Rankin)                                       MPEC 2021-W31
    CK20U040  2022 04  7.9373  5.353702  1.001435   69.5292  120.0144  167.0359  20220128   7.0  4.0  C/2020 U4 (PANSTARRS)                                    MPEC 2022-A21
    CK20U050  2022 04 27.8785  3.755944  0.999385   75.4156  107.3374   97.2707  20220128   8.0  4.0  C/2020 U5 (PANSTARRS)                                    MPEC 2022-A21
    CK20V020  2023 05  8.5002  2.228257  1.001189  162.4016  212.3613  131.6088  20220128   4.9  4.0  C/2020 V2 (ZTF)                                          MPEC 2022-A21
    PK20V030  2021 02  8.6258  6.230182  0.255785  249.3293  198.2634   23.0315  20220128   8.3  4.0  P/2020 V3 (PANSTARRS)                                    MPEC 2021-N06
